141P-E/Machholz,e,12.8152,246.1856,149.2667,3.012914,0.1884620,0.75023267,359.9529,09/19.0/1994,2000,g  9.0,4.0
# From MPEC 2015-R12
141P-F/Machholz,e,12.7898,246.1881,149.2374,3.010224,0.1887147,0.75000946,359.9630,09/19.0/1994,2000,g  9.0,4.0
# From MPEC 2015-R12
141P-G/Machholz,e,12.8259,246.3146,149.0784,3.005818,0.1891298,0.74964304,359.9802,09/19.0/1994,2000,g  9.0,4.0
# From MPC 95735
141P-H/Machholz,e,12.8431,246.0900,149.4500,3.008012,0.1889230,0.74682218,359.9270,08/24.0/2015,2000,g 18.5,4.0
# From MPEC 2022-SU8
141P-I/Machholz,e,13.9429,153.5013,241.8907,3.048112,0.1852071,0.73529903,227.8670,04/30.0/2024,2000,g 17.5,4.0
# From MPEC 2024-C04
142P/Ge-Wang,e,12.2493,175.9451,174.0740,5.002492,0.0880896,0.49655593,95.4567,04/30.0/2024,2000,g  8.5,6.0
# From MPEC 2023-XP6
143P/Kowal-Mrkos,e,5.1282,243.6701,320.4466,4.264164,0.1119317,0.42960647,247.9137,04/30.0/2024,2000,g 13.5,2.0
# From MPEC 2024-H91
144P/Kushida,e,3.9319,242.9251,216.3223,3.831131,0.1314358,0.63486898,12.5165,04/30.0/2024,2000,g  8.5,8.0
# From MPC108598
145P/Shoemaker-Levy,e,11.2775,26.8127,10.3183,4.133088,0.1172984,0.54261399,284.7209,04/30.0/2024,2000,g 13.5,4.0
# From MPC100284
146P/Shoemaker-LINEAR,e,23.1171,53.4198,317.0259,4.026038,0.1220077,0.64741965,348.1055,04/30.0/2024,2000,g 15.0,4.0
# From MPC 75720
147P/Kushida-Muramatsu,e,2.2913,92.1162,348.1027,4.010376,0.1227231,0.21239097,17.7884,04/30.0/2024,2000,g 14.0,4.0
# From MPEC 2023-HD1
148P/Anderson-LINEAR,e,3.6587,89.1966,8.0544,3.619772,0.1431140,0.55024670,98.1928,04/30.0/2024,2000,g 16.2,4.0
# From MPEC 2023-J29
149P/Mueller,e,34.2373,143.8364,30.3857,4.124906,0.1176476,0.32431971,246.8762,04/30.0/2024,2000,g  8.0,8.0
# From MPEC 2024-H91
150P/LONEOS,e,18.5473,272.0585,246.1139,3.870153,0.1294529,0.54896175,6.2832,04/30.0/2024,2000,g 13.5,4.0
# From MPEC 2022-K19
151P/Helin,e,4.7276,143.1617,216.1359,5.764182,0.0712193,0.57325649,222.2254,04/30.0/2024,2000,g 10.0,6.0
# From MPEC 2024-H91
152P/Helin-Lawrence,e,9.8782,91.7947,164.3722,4.483421,0.1038221,0.30801034,86.8228,04/30.0/2024,2000,g 11.5,4.0
# From MPC 46101
153P/Ikeya-Zhang,e,28.4004,93.7083,34.3685,50.35575,0.0027582,0.98998825,0.0000,03/06.1386/2002,2000,g  9.0,4.0
# From MPEC 2022-K19
154P/Brewington,e,17.6339,343.0162,47.9601,4.795225,0.0938622,0.67614790,356.0154,04/30.0/2024,2000,g  2.5,12.0
# From MPEC 2022-YN2
155P/Shoemaker,e,6.4079,97.1589,14.5197,6.571024,0.0585133,0.72730959,95.1933,04/30.0/2024,2000,g 10.0,4.8
# From MPEC 2023-J29
156P/Russell-LINEAR,e,17.2692,35.3419,0.5061,3.462499,0.1529747,0.61513372,192.4926,04/30.0/2024,2000,g 15.5,2.0
# From MPEC 2024-D33
157P/Tritton,e,12.4209,287.5172,155.1244,3.546972,0.1475426,0.55682954,88.2384,04/30.0/2024,2000,g 10.0,4.0
# From MPEC 2022-VC5
157P-B/Tritton,e,12.4249,153.9148,287.1455,3.102320,0.1803741,0.49989917,108.1980,04/30.0/2024,2000,g 15.7,4.0
# From MPEC 2024-D33
158P/Kowal-LINEAR,e,7.3013,126.7985,215.8548,5.560687,0.0751643,0.11642144,53.7289,04/30.0/2024,2000,g  9.0,4.0
# From MPEC 2024-DC6
159P/LONEOS,e,23.4896,54.9389,4.6542,5.853451,0.0695963,0.38280659,150.8023,04/30.0/2024,2000,g 10.0,4.0
# From MPEC 2022-K19
160P/LINEAR,e,15.6032,333.3718,12.7886,3.778258,0.1342044,0.52549648,216.1579,04/30.0/2024,2000,g 15.5,2.0
# From MPC 75721
161P/Hartley-IRAS,e,95.8218,1.5593,47.0634,7.713045,0.0460114,0.83564644,316.6499,04/30.0/2024,2000,g  8.5,6.0
# From MPEC 2024-H91
162P/SidingSpring,e,27.5627,30.8872,357.2173,3.092149,0.1812647,0.58311644,224.4818,04/30.0/2024,2000,g 12.0,4.0
# From MPEC 2021-S45
163P/NEAT,e,12.7194,102.0696,349.5783,3.762895,0.1350271,0.45323514,233.3553,04/30.0/2024,2000,g 14.5,4.0
# From MPEC 2021-F20
164P/Christensen,e,16.2727,88.3048,325.8901,3.652362,0.1412028,0.54124481,304.5967,04/30.0/2024,2000,g 11.0,4.0
# From MPC 75721
165P/LINEAR,e,15.9000,0.7855,125.7738,17.81887,0.0131034,0.61818330,114.4510,04/30.0/2024,2000,g 11.5,2.0
# From MPC 75722
166P/NEAT,e,15.3798,64.4303,321.7401,13.82620,0.0191712,0.38416585,153.2642,04/30.0/2024,2000,g  5.5,4.0
# From MPEC 2023-J29
167P/CINEOS,e,19.0861,295.8004,344.6987,16.25857,0.0150342,0.26832027,126.5300,04/30.0/2024,2000,g  9.5,2.0
# From MPEC 2023-J29
168P/Hergenrother,e,21.6033,355.4160,15.0793,3.586862,0.1450882,0.62152296,250.3070,04/30.0/2024,2000,g 15.5,4.0
# From MPEC 2023-J95
169P/NEAT,e,11.2937,176.0905,218.0842,2.603357,0.2346408,0.76827913,154.9185,04/30.0/2024,2000,g 16.0,2.0
# From MPEC 2024-GJ3
170P/Christensen,e,10.1144,142.7039,225.1168,4.205341,0.1142884,0.30557611,43.2540,04/30.0/2024,2000,g 12.0,4.0
# From MPC102102
171P/Spahr,e,21.9499,101.6990,347.0643,3.552571,0.1471939,0.50259601,284.4801,04/30.0/2024,2000,g 13.5,4.0
# From MPEC 2024-GJ3
172P/Yeung,e,11.2251,30.8777,209.0334,4.220486,0.1136738,0.20452019,297.2162,04/30.0/2024,2000,g 13.0,4.0
# From MPEC 2023-N01
173P/Mueller,e,16.4907,100.3563,29.1907,5.712609,0.0721859,0.26202677,62.4560,04/30.0/2024,2000,g  7.5,4.0
# From MPC 92985
174P/Echeclus,e,4.3429,173.3003,163.4382,10.75562,0.0279416,0.45589639,92.0257,04/30.0/2024,2000,g  9.4,2.0
# From MPC114608
175P/Hergenrother,e,4.9127,110.0980,75.1329,3.673502,0.1399857,0.37976192,240.2627,04/30.0/2024,2000,g 14.0,4.0
# From MPC 89015
176P/LINEAR,e,0.2314,345.6281,34.4492,3.194446,0.1726278,0.19222982,90.9511,04/30.0/2024,2000,g 15.1,2.0
# From MPEC 2020-L06
177P/Barnard,e,31.0485,271.9517,60.6222,24.51606,0.0081195,0.95469435,52.3529,04/30.0/2024,2000,g 15.0,4.0
# From MPEC 2021-F20
178P/Hug-Bell,e,11.0901,102.7976,297.9260,3.632796,0.1423451,0.48252409,196.7506,04/30.0/2024,2000,g 14.6,4.0
# From MPEC 2024-EF7
179P/Jedicke,e,19.8935,115.5145,297.1078,5.934943,0.0681678,0.30578406,47.6779,04/30.0/2024,2000,g  2.5,8.0
# From MPEC 2024-F34
180P/NEAT,e,16.8613,84.5598,94.6458,3.868396,0.1295411,0.35358133,37.9409,04/30.0/2024,2000,g 11.0,4.0
# From MPC 89012
181P/Shoemaker-Levy,e,17.4826,35.4219,336.2897,3.877723,0.1290740,0.70030402,108.7204,04/30.0/2024,2000,g 11.5,4.0
# From MPEC 2014-J10
182P/LONEOS,e,16.2319,72.4499,54.2056,2.949420,0.1945804,0.66358010,139.8259,04/30.0/2024,2000,g 18.0,4.0
# From MPEC 2023-A50
183P/Korlevic-Juric,e,18.8048,3.8442,164.6243,4.689740,0.0970467,0.10327820,238.4778,04/30.0/2024,2000,g 12.5,2.0
# From MPEC 2020-W26
184P/Lovas,e,4.5728,173.2756,186.5588,3.799243,0.1330940,0.55042117,170.6060,04/30.0/2024,2000,g 13.5,4.0
# From MPEC 2024-F91
185P/Petriew,e,14.0145,214.1151,181.8980,3.098586,0.1807002,0.69968969,52.7840,04/30.0/2024,2000,g 15.0,4.0
# From MPEC 2022-X67
186P/Garradd,e,28.6265,326.1100,269.0224,4.851765,0.0922262,0.12425569,180.0982,04/30.0/2024,2000,g  7.5,4.0
# From MPEC 2020-SI8
187P/LINEAR,e,13.6507,109.8484,131.1814,4.559409,0.1012375,0.15404770,220.7967,04/30.0/2024,2000,g  9.0,4.0
# From MPEC 2023-J29
188P/LINEAR-Mueller,e,10.5238,358.9378,26.7498,4.367859,0.1079695,0.41692737,283.0171,04/30.0/2024,2000,g 11.5,4.0
# From MPEC 2022-QD9
189P/NEAT,e,20.0935,281.6727,16.2591,2.942999,0.1952175,0.58924294,119.1111,04/30.0/2024,2000,g 19.0,4.0
# From MPEC 2020-K19
190P/Mueller,e,2.1747,335.5603,50.4496,4.227188,0.1134036,0.52222047,332.9979,04/30.0/2024,2000,g 13.0,4.0
# From MPEC 2022-X67
191P/McNaught,e,8.8390,98.1918,284.2367,3.639500,0.1419520,0.38566792,161.3214,04/30.0/2024,2000,g 13.0,4.0
# From MPC 75724
192P/Shoemaker-Levy,e,24.5849,51.6550,313.0459,6.460404,0.0600226,0.77331532,358.5372,04/30.0/2024,2000,g 15.0,4.0
# From MPEC 2024-H91
193P/LINEAR-NEAT,e,10.6839,335.1875,8.1352,3.578207,0.1456149,0.39312555,142.5858,04/30.0/2024,2000,g 14.0,4.0
# From MPEC 2024-GJ3
194P/LINEAR,e,11.8059,349.5253,128.5659,4.119836,0.1178648,0.56319381,10.1093,04/30.0/2024,2000,g 16.0,4.0
# From MPEC 2024-GJ3
195P/Hill,e,36.4221,243.1118,250.0833,6.478726,0.0597681,0.31392414,332.6139,04/30.0/2024,2000,g  8.5,4.0
# From MPEC 2024-GJ3
196P/Tichy,e,19.3010,24.1153,12.0870,3.804460,0.1328203,0.42792718,72.8708,04/30.0/2024,2000,g 13.5,4.0
# From MPEC 2023-UR6
197P/LINEAR,e,25.6195,66.2515,189.1440,2.878939,0.2017694,0.62918394,102.6499,04/30.0/2024,2000,g 16.5,2.0
# From NK 1596
198P/ODAS,e,1.3388,358.2061,69.2846,3.594376,0.1446335,0.44475942,283.6813,04/30.0/2024,2000,g  9.0,4.0
# From MPEC 2024-GJ3
199P/Shoemaker,e,24.9387,92.3486,191.7714,5.877924,0.0691621,0.50485309,18.4276,04/30.0/2024,2000,g 10.0,4.0
# From MPEC 2022-C56
200P/Larsen,e,12.0964,234.8046,134.3646,4.950092,0.0894920,0.33199295,155.3487,04/30.0/2024,2000,g  9.0,4.0
# From MPC 93588
201P/LONEOS,e,5.7398,41.5394,19.7666,3.354770,0.1604021,0.63758339,171.4181,04/30.0/2024,2000,g 14.0,4.0
# From MPEC 2023-XP6
202P/Scotti,e,2.1415,177.3155,274.4925,4.103942,0.1185502,0.25201662,357.9356,04/30.0/2024,2000,g 13.5,4.0
# From MPEC 2021-S45
203P/Korlevic,e,2.9742,290.2518,154.8396,4.668638,0.0977054,0.31625164,148.1109,04/30.0/2024,2000,g 14.5,2.0
# From MPEC 2024-H91
204P/LINEAR-NEAT,e,6.5964,108.4834,356.6893,3.583461,0.1452948,0.48814094,77.0089,04/30.0/2024,2000,g 14.0,4.0
# From MPEC 2023_O39
205P/Giacobini,e,15.3045,179.6123,154.1838,3.542582,0.1478170,0.56754615,123.8216,04/30.0/2024,2000,g 13.0,4.0
# From MPC 75725
206P/Barnard-Boattini,e,33.6339,202.3519,189.5531,3.490951,0.1511084,0.55143433,174.0784,04/30.0/2024,2000,g 19.0,4.0
# From MPEC 2024-H91
207P/NEAT,e,10.2013,198.1559,272.9928,3.883711,0.1287757,0.75841119,11.4845,04/30.0/2024,2000,g 16.0,4.0
# From MPEC 2022-K19
208P/McMillan,e,4.4123,36.4006,310.6141,4.038582,0.1214397,0.37386353,345.9231,04/30.0/2024,2000,g 12.5,4.0
# From MPEC 2024-H91
209P/LINEAR,e,21.2825,62.7698,152.4948,2.958383,0.1936968,0.67400597,345.3763,04/30.0/2024,2000,g 17.0,2.0
# From MPC105242
210P/Christensen,e,10.2795,93.8238,345.8972,3.162099,0.1752834,0.83400268,259.7907,04/30.0/2024,2000,g 13.5,4.0
# From MPEC 2023-KD6
211P/Hill,e,18.9197,117.1116,4.3159,3.548756,0.1474314,0.34423818,84.5132,04/30.0/2024,2000,g 12.5,4.0
# From MPEC 2024-GJ3
212P/NEAT,e,22.1487,97.9754,14.0230,3.901154,0.1279129,0.58667487,0.6272,04/30.0/2024,2000,g 17.0,2.0
# From MPEC 2022-GA9
